COSMOS 2058             
1 20465U 90010A   26157.54661974  .00003825  00000+0  22126-3 0  9993
2 20465  82.4665 319.8499 0010456  36.0110 324.1822 15.11943112955661
SL-14 R/B               
1 20466U 90010B   26157.51185095  .00000381  00000+0  43179-4 0  9992
2 20466  82.5019 183.9705 0020055  11.7734 348.3946 14.83639613941659
SL-14 R/B               
1 20511U 90018B   26157.21004448  .00000429  00000+0  50699-4 0  9998
2 20511  82.5201 140.3677 0016775 155.6622 204.5388 14.82209102935691
HST                     
1 20580U 90037B   26157.32027908  .00006872  00000+0  21780-3 0  9999
2 20580  28.4714 154.8380 0001885  34.6923 325.3796 15.30632786786907
SL-16 R/B               
1 20625U 90046B   26157.62723566  .00000257  00000+0  15697-3 0  9996
2 20625  70.9979 111.1256 0014140 177.7915 182.3272 14.15020420860976
COSMOS 2084             
1 20663U 90055A   26157.37190060  .00002460  00000+0  18125-3 0  9994
2 20663  62.7909  33.0039 0005571 259.1304 100.9169 15.06072304949671
SL-6 R/B(2)             
1 20666U 90055D   26157.54421658  .00002078  00000+0  16208-3 0  9991
2 20666  62.7840 311.5925 0038882   3.6281 356.5092 15.03967766951559
SL-8 R/B                
1 20775U 90078B   26157.53258888  .00019142  00000+0  53935-3 0  9997
2 20775  82.9017 171.2678 0352992  74.3044 289.6817 14.91925991822535
SL-8 R/B                
1 21088U 91006B   26157.62626435  .00000054  00000+0  39051-4 0  9990
2 21088  82.9418 103.8898 0023195 142.8174  30.0577 13.77505131776316
OKEAN-3                 
1 21397U 91039A   26157.50284317  .00002587  00000+0  17869-3 0  9990
2 21397  82.5167 250.7419 0014688  34.5757 325.6422 15.05281148878393
COSMOS 2151             
1 21422U 91042A   26157.52275889  .00001602  00000+0  12514-3 0  9998
2 21422  82.4962 357.9738 0013671 115.9599 244.3035 15.00408633876511
SL-14 R/B               
1 21423U 91042B   26157.21428045  .00000441  00000+0  52706-4 0  9997
2 21423  82.4919 137.1857 0015831 314.2016  45.7896 14.81895487866187
ERS-1                   
1 21574U 91050A   26157.53014674  .00000269  00000+0  10060-3 0  9991
2 21574  98.7800 177.9676 0030827 299.8428  59.9696 14.39510443828510
ARIANE 40 R/B           
1 21610U 91050F   26157.37023116  .00000331  00000+0  11132-3 0  9996
2 21610  98.1880 206.2078 0003755 145.3517 214.7919 14.42950820831782
INTERCOSMOS 25          
1 21819U 91086A   26157.54743628  .00000773  00000+0  15383-3 0  9994
2 21819  82.6057 256.2482 1484428 285.3665  58.8577 12.12183565507451
SL-8 R/B                
1 21876U 92008B   26157.51935736  .00000052  00000+0  37614-4 0  9994
2 21876  82.9269 201.7190 0033313 245.4587 225.9391 13.75974007721633
SL-8 R/B                
1 21938U 92020B   26157.60249632  .00000072  00000+0  58173-4 0  9995
2 21938  82.9303  87.7189 0030290  51.2399 123.1741 13.75547874713352
USA 81                  
1 21949U 92023A   26157.51697703  .00000200  00000+0  66646-4 0  9993
2 21949  85.0077  80.1652 0002730  94.5024 265.6480 14.32395314107501
COSMOS 2219             
1 22219U 92076A   26157.50922495 -.00000089  00000+0 -22181-4 0  9993
2 22219  71.0579 192.3946 0016101  61.5883 298.6860 14.14095596730936
SL-16 R/B               
1 22220U 92076B   26157.32068421 -.00000178  00000+0 -65011-4 0  9993
2 22220  71.0009   1.6730 0014380 312.9503 219.6177 14.16872544734383
COSMOS 2221             
1 22236U 92080A   26157.50771739  .00001574  00000+0  13617-3 0  9991
2 22236  82.5035 193.9961 0012635 251.7631 108.2217 14.96507046794070
SL-16 R/B               
1 22285U 92093B   26157.50069387 -.00000052  00000+0 -20493-5 0  9992
2 22285  71.0202 177.8254 0004523 203.0830 157.0091 14.15465009725728
COSMOS 2228             
1 22286U 92094A   26157.59748471  .00002752  00000+0  23293-3 0  9997
2 22286  82.5170 152.1862 0017971   8.6131 351.5396 14.97548721789367
SL-16 R/B               
1 22566U 93016B   26157.33827031 -.00000003  00000+0  23003-4 0  9993
2 22566  71.0080  28.9947 0010910 199.3980 160.6729 14.15308541714711
COSMOS 2242             
1 22626U 93024A   26157.48527153  .00001832  00000+0  15713-3 0  9995
2 22626  82.5181 181.7814 0016436  12.7963 347.3673 14.96872179793672
SL-16 R/B               
1 22803U 93059B   26157.47937069  .00000092  00000+0  69043-4 0  9993
2 22803  70.9882 183.8845 0014942  72.6961 287.5796 14.17243692692111
ARIANE 40 R/B           
1 22830U 93061H   26157.45184432  .00000235  00000+0  10191-3 0  9990
2 22830  98.4821 224.5316 0011152  27.8364 332.3415 14.32903483706812
COSMOS 2278             
1 23087U 94023A   26157.28487883  .00000395  00000+0  23110-3 0  9993
2 23087  71.0539 349.7369 0010642 255.5842 104.4099 14.14391389657336
SL-16 R/B               
1 23088U 94023B   26157.50356493  .00000111  00000+0  81951-4 0  9995
2 23088  70.9997 244.3678 0003451 198.3395 161.7604 14.15018718658650
SL-16 R/B               
1 23343U 94074B   26157.54039796  .00000470  00000+0  69509-4 0  9996
2 23343  97.6995 184.7046 0005211 298.0871 183.1211 14.79493465700383
