OBJECT_NAME,OBJECT_ID,EPOCH,MEAN_MOTION,ECCENTRICITY,INCLINATION,RA_OF_ASC_NODE,ARG_OF_PERICENTER,MEAN_ANOMALY,EPHEMERIS_TYPE,CLASSIFICATION_TYPE,NORAD_CAT_ID,ELEMENT_SET_NO,REV_AT_EPOCH,BSTAR,MEAN_MOTION_DOT,MEAN_MOTION_DDOT
COSMOS 2058,1990-010A,2026-06-06T13:07:07.945536,15.11943112,.00104568,82.4665,319.8499,36.0110,324.1822,0,U,20465,999,95566,.22125667E-3,.3825E-4,0
SL-14 R/B,1990-010B,2026-06-06T12:17:03.922080,14.83639613,.00200557,82.5019,183.9705,11.7734,348.3946,0,U,20466,999,94165,.43179405E-4,.381E-5,0
SL-14 R/B,1990-018B,2026-06-06T05:02:27.843072,14.82209102,.00167752,82.5201,140.3677,155.6622,204.5388,0,U,20511,999,93569,.50699231E-4,.429E-5,0
HST,1990-037B,2026-06-06T07:41:12.112512,15.30632786,.00018855,28.4714,154.8380,34.6923,325.3796,0,U,20580,999,78690,.2178043E-3,.6872E-4,0
SL-16 R/B,1990-046B,2026-06-06T15:03:13.161024,14.15020420,.00141408,70.9979,111.1256,177.7915,182.3272,0,U,20625,999,86097,.15697479E-3,.257E-5,0
COSMOS 2084,1990-055A,2026-06-06T08:55:32.211840,15.06072304,.00055715,62.7909,33.0039,259.1304,100.9169,0,U,20663,999,94967,.1812536E-3,.246E-4,0
SL-6 R/B(2),1990-055D,2026-06-06T13:03:40.312512,15.03967766,.00388823,62.7840,311.5925,3.6281,356.5092,0,U,20666,999,95155,.16208026E-3,.2078E-4,0
SL-8 R/B,1990-078B,2026-06-06T12:46:55.679232,14.91925991,.03529925,82.9017,171.2678,74.3044,289.6817,0,U,20775,999,82253,.53934868E-3,.19142E-3,0
SL-8 R/B,1991-006B,2026-06-06T15:01:49.239840,13.77505131,.00231951,82.9418,103.8898,142.8174,30.0577,0,U,21088,999,77631,.39051211E-4,.54E-6,0
OKEAN-3,1991-039A,2026-06-06T12:04:05.649888,15.05281148,.00146889,82.5167,250.7419,34.5757,325.6422,0,U,21397,999,87839,.17869085E-3,.2587E-4,0
COSMOS 2151,1991-042A,2026-06-06T12:32:46.368096,15.00408633,.00136714,82.4962,357.9738,115.9599,244.3035,0,U,21422,999,87651,.12513895E-3,.1602E-4,0
SL-14 R/B,1991-042B,2026-06-06T05:08:33.830880,14.81895487,.0015831,82.4919,137.1857,314.2016,45.7896,0,U,21423,999,86618,.52706207E-4,.441E-5,0
ERS-1,1991-050A,2026-06-06T12:43:24.678336,14.39510443,.00308271,98.7800,177.9676,299.8428,59.9696,0,U,21574,999,82851,.10060349E-3,.269E-5,0
ARIANE 40 R/B,1991-050F,2026-06-06T08:53:07.972224,14.42950820,.00037551,98.1880,206.2078,145.3517,214.7919,0,U,21610,999,83178,.11131732E-3,.331E-5,0
INTERCOSMOS 25,1991-086A,2026-06-06T13:08:18.494592,12.12183565,.14844285,82.6057,256.2482,285.3665,58.8577,0,U,21819,999,50745,.15382919E-3,.773E-5,0
SL-8 R/B,1992-008B,2026-06-06T12:27:52.475904,13.75974007,.00333138,82.9269,201.7190,245.4587,225.9391,0,U,21876,999,72163,.37614244E-4,.52E-6,0
SL-8 R/B,1992-020B,2026-06-06T14:27:35.682048,13.75547874,.00302909,82.9303,87.7189,51.2399,123.1741,0,U,21938,999,71335,.58172579E-4,.72E-6,0
USA 81,1992-023A,2026-06-06T12:24:26.815392,14.32395314,.00027309,85.0077,80.1652,94.5024,265.6480,0,U,21949,999,10750,.66645858E-4,.2E-5,0
COSMOS 2219,1992-076A,2026-06-06T12:13:17.035680,14.14095596,.0016101,71.0579,192.3946,61.5883,298.6860,0,U,22219,999,73093,-.22180553E-4,-.89E-6,0
SL-16 R/B,1992-076B,2026-06-06T07:41:47.115744,14.16872544,.00143802,71.0009,1.6730,312.9503,219.6177,0,U,22220,999,73438,-.65011165E-4,-.178E-5,0
COSMOS 2221,1992-080A,2026-06-06T12:11:06.782496,14.96507046,.00126357,82.5035,193.9961,251.7631,108.2217,0,U,22236,999,79407,.13617027E-3,.1574E-4,0
SL-16 R/B,1992-093B,2026-06-06T12:00:59.950368,14.15465009,.00045232,71.0202,177.8254,203.0830,157.0091,0,U,22285,999,72572,-.2049295E-5,-.52E-6,0
COSMOS 2228,1992-094A,2026-06-06T14:20:22.678944,14.97548721,.00179716,82.5170,152.1862,8.6131,351.5396,0,U,22286,999,78936,.23292832E-3,.2752E-4,0
SL-16 R/B,1993-016B,2026-06-06T08:07:06.554784,14.15308541,.00109101,71.0080,28.9947,199.3980,160.6729,0,U,22566,999,71471,.23002518E-4,-.3E-7,0
COSMOS 2242,1993-024A,2026-06-06T11:38:47.460192,14.96872179,.00164365,82.5181,181.7814,12.7963,347.3673,0,U,22626,999,79367,.15712591E-3,.1832E-4,0
SL-16 R/B,1993-059B,2026-06-06T11:30:17.627616,14.17243692,.00149422,70.9882,183.8845,72.6961,287.5796,0,U,22803,999,69211,.6904293E-4,.92E-6,0
ARIANE 40 R/B,1993-061H,2026-06-06T10:50:39.349248,14.32903483,.00111527,98.4821,224.5316,27.8364,332.3415,0,U,22830,999,70681,.10190543E-3,.235E-5,0
COSMOS 2278,1994-023A,2026-06-06T06:50:13.530912,14.14391389,.00106421,71.0539,349.7369,255.5842,104.4099,0,U,23087,999,65733,.23109514E-3,.395E-5,0
SL-16 R/B,1994-023B,2026-06-06T12:05:08.009952,14.15018718,.00034518,70.9997,244.3678,198.3395,161.7604,0,U,23088,999,65865,.81950836E-4,.111E-5,0
SL-16 R/B,1994-074B,2026-06-06T12:58:10.383744,14.79493465,.00052113,97.6995,184.7046,298.0871,183.1211,0,U,23343,999,70038,.69509116E-4,.47E-5,0
